{
  "type": "FeatureCollection",
  "features": [
    {
      "type": "Feature",
      "properties": {
        "norad_id": 38867,
        "name": "INTELSAT 23 (IS-23)",
        "group": "intelsat",
        "lat": -0.035484517977288854,
        "lon": -24.897842238214107,
        "alt_km": 35795.635501327844,
        "timestamp": "2025-12-09T20:37:08.949681+00:00",
        "meta_object_name": "INTELSAT 23 (IS-23)",
        "meta_object_id": "2012-057A",
        "meta_epoch": "2025-12-09T11:36:33.967008",
        "meta_mean_motion": 1.00260409,
        "meta_eccentricity": 0.0002031,
        "meta_inclination": 0.0423,
        "meta_ra_of_asc_node": 93.9741,
        "meta_arg_of_pericenter": 103.251,
        "meta_mean_anomaly": 2.3642,
        "meta_ephemeris_type": 0,
        "meta_classification_type": "U",
        "meta_norad_cat_id": 38867,
        "meta_element_set_no": 999,
        "meta_rev_at_epoch": 4805,
        "meta_bstar": 0,
        "meta_mean_motion_dot": -2.82e-06,
        "meta_mean_motion_ddot": 0,
        "tle_line1": "1 38867U 12057A   25343.48372647 -.00000282  00000+0  00000+0 0  9996",
        "tle_line2": "2 38867   0.0423  93.9741 0002031 103.2510   2.3642  1.00260409 48050"
      },
      "geometry": {
        "type": "Point",
        "coordinates": [
          -24.897842238214107,
          -0.035484517977288854
        ]
      }
    },
    {
      "type": "Feature",
      "properties": {
        "norad_id": 39360,
        "name": "FM-6",
        "group": "intelsat",
        "lat": -0.004201230271344658,
        "lon": -87.99013871727585,
        "alt_km": 35788.490416889035,
        "timestamp": "2025-12-09T20:37:08.949692+00:00",
        "meta_object_name": "FM-6",
        "meta_object_id": "2013-058A",
        "meta_epoch": "2025-12-09T13:10:20.280576",
        "meta_mean_motion": 1.00269305,
        "meta_eccentricity": 0.00028552,
        "meta_inclination": 0.007,
        "meta_ra_of_asc_node": 81.8262,
        "meta_arg_of_pericenter": 91.8645,
        "meta_mean_anomaly": 346.2842,
        "meta_ephemeris_type": 0,
        "meta_classification_type": "U",
        "meta_norad_cat_id": 39360,
        "meta_element_set_no": 999,
        "meta_rev_at_epoch": 4417,
        "meta_bstar": 0,
        "meta_mean_motion_dot": -1.4e-07,
        "meta_mean_motion_ddot": 0,
        "tle_line1": "1 39360U 13058A   25343.54884584 -.00000014  00000+0  00000+0 0  9995",
        "tle_line2": "2 39360   0.0070  81.8262 0002855  91.8645 346.2842  1.00269305 44171"
      },
      "geometry": {
        "type": "Point",
        "coordinates": [
          -87.99013871727585,
          -0.004201230271344658
        ]
      }
    },
    {
      "type": "Feature",
      "properties": {
        "norad_id": 40271,
        "name": "INTELSAT 30 (IS-30)",
        "group": "intelsat",
        "lat": -0.029466215682633076,
        "lon": -66.94317421738829,
        "alt_km": 35791.54492767183,
        "timestamp": "2025-12-09T20:37:08.949704+00:00",
        "meta_object_name": "INTELSAT 30 (IS-30)",
        "meta_object_id": "2014-062A",
        "meta_epoch": "2025-12-09T12:22:48.556128",
        "meta_mean_motion": 1.00269053,
        "meta_eccentricity": 0.00012996,
        "meta_inclination": 0.0144,
        "meta_ra_of_asc_node": 15.4205,
        "meta_arg_of_pericenter": 65.9123,
        "meta_mean_anomaly": 87.8151,
        "meta_ephemeris_type": 0,
        "meta_classification_type": "U",
        "meta_norad_cat_id": 40271,
        "meta_element_set_no": 999,
        "meta_rev_at_epoch": 488,
        "meta_bstar": 0,
        "meta_mean_motion_dot": -1.48e-06,
        "meta_mean_motion_ddot": 0,
        "tle_line1": "1 40271U 14062A   25343.51583977 -.00000148  00000+0  00000+0 0  9991",
        "tle_line2": "2 40271   0.0144  15.4205 0001299  65.9123  87.8151  1.00269053  4885"
      },
      "geometry": {
        "type": "Point",
        "coordinates": [
          -66.94317421738829,
          -0.029466215682633076
        ]
      }
    },
    {
      "type": "Feature",
      "properties": {
        "norad_id": 40333,
        "name": "DIRECTV 14",
        "group": "intelsat",
        "lat": -0.026839524833101883,
        "lon": -71.05211026463519,
        "alt_km": 35779.25854295884,
        "timestamp": "2025-12-09T20:37:08.949715+00:00",
        "meta_object_name": "DIRECTV 14",
        "meta_object_id": "2014-078B",
        "meta_epoch": "2025-12-09T10:14:01.480992",
        "meta_mean_motion": 1.00285429,
        "meta_eccentricity": 9.851e-05,
        "meta_inclination": 0.0183,
        "meta_ra_of_asc_node": 330.534,
        "meta_arg_of_pericenter": 274.6028,
        "meta_mean_anomaly": 247.5776,
        "meta_ephemeris_type": 0,
        "meta_classification_type": "U",
        "meta_norad_cat_id": 40333,
        "meta_element_set_no": 999,
        "meta_rev_at_epoch": 4014,
        "meta_bstar": 0,
        "meta_mean_motion_dot": -1.25e-06,
        "meta_mean_motion_ddot": 0,
        "tle_line1": "1 40333U 14078B   25343.42640603 -.00000125  00000+0  00000+0 0  9992",
        "tle_line2": "2 40333   0.0183 330.5340 0000985 274.6028 247.5776  1.00285429 40144"
      },
      "geometry": {
        "type": "Point",
        "coordinates": [
          -71.05211026463519,
          -0.026839524833101883
        ]
      }
    },
    {
      "type": "Feature",
      "properties": {
        "norad_id": 40663,
        "name": "DIRECTV 15",
        "group": "intelsat",
        "lat": -0.029823215272202767,
        "lon": -74.74336365204105,
        "alt_km": 35785.54964132172,
        "timestamp": "2025-12-09T20:37:08.949727+00:00",
        "meta_object_name": "DIRECTV 15",
        "meta_object_id": "2015-026A",
        "meta_epoch": "2025-12-09T13:13:12.938880",
        "meta_mean_motion": 1.00269129,
        "meta_eccentricity": 3.073e-05,
        "meta_inclination": 0.0394,
        "meta_ra_of_asc_node": 81.8436,
        "meta_arg_of_pericenter": 210.8275,
        "meta_mean_anomaly": 241.3048,
        "meta_ephemeris_type": 0,
        "meta_classification_type": "U",
        "meta_norad_cat_id": 40663,
        "meta_element_set_no": 999,
        "meta_rev_at_epoch": 3856,
        "meta_bstar": 0,
        "meta_mean_motion_dot": -1e-06,
        "meta_mean_motion_ddot": 0,
        "tle_line1": "1 40663U 15026A   25343.55084420 -.00000100  00000+0  00000+0 0  9998",
        "tle_line2": "2 40663   0.0394  81.8436 0000307 210.8275 241.3048  1.00269129 38566"
      },
      "geometry": {
        "type": "Point",
        "coordinates": [
          -74.74336365204105,
          -0.029823215272202767
        ]
      }
    },
    {
      "type": "Feature",
      "properties": {
        "norad_id": 40664,
        "name": "SKY MEXICO-1",
        "group": "intelsat",
        "lat": -0.029281924688801055,
        "lon": -50.62137560062043,
        "alt_km": 35776.91474449966,
        "timestamp": "2025-12-09T20:37:08.949738+00:00",
        "meta_object_name": "SKY MEXICO-1",
        "meta_object_id": "2015-026B",
        "meta_epoch": "2025-12-09T13:11:54.834144",
        "meta_mean_motion": 1.0027076,
        "meta_eccentricity": 0.00027437,
        "meta_inclination": 0.0255,
        "meta_ra_of_asc_node": 62.1436,
        "meta_arg_of_pericenter": 212.1489,
        "meta_mean_anomaly": 283.4587,
        "meta_ephemeris_type": 0,
        "meta_classification_type": "U",
        "meta_norad_cat_id": 40664,
        "meta_element_set_no": 999,
        "meta_rev_at_epoch": 3855,
        "meta_bstar": 0,
        "meta_mean_motion_dot": -2.32e-06,
        "meta_mean_motion_ddot": 0,
        "tle_line1": "1 40664U 15026B   25343.54994021 -.00000232  00000+0  00000+0 0  9991",
        "tle_line2": "2 40664   0.0255  62.1436 0002743 212.1489 283.4587  1.00270760 38550"
      },
      "geometry": {
        "type": "Point",
        "coordinates": [
          -50.62137560062043,
          -0.029281924688801055
        ]
      }
    },
    {
      "type": "Feature",
      "properties": {
        "norad_id": 40874,
        "name": "INTELSAT 34 (IS-34)",
        "group": "intelsat",
        "lat": 0.005685620896181735,
        "lon": -27.36538712859859,
        "alt_km": 35788.89734942164,
        "timestamp": "2025-12-09T20:37:08.949750+00:00",
        "meta_object_name": "INTELSAT 34 (IS-34)",
        "meta_object_id": "2015-039A",
        "meta_epoch": "2025-12-09T13:18:24.212160",
        "meta_mean_motion": 1.00270174,
        "meta_eccentricity": 5.837e-05,
        "meta_inclination": 0.0128,
        "meta_ra_of_asc_node": 307.095,
        "meta_arg_of_pericenter": 223.5421,
        "meta_mean_anomaly": 52.0138,
        "meta_ephemeris_type": 0,
        "meta_classification_type": "U",
        "meta_norad_cat_id": 40874,
        "meta_element_set_no": 999,
        "meta_rev_at_epoch": 3772,
        "meta_bstar": 0,
        "meta_mean_motion_dot": -2.83e-06,
        "meta_mean_motion_ddot": 0,
        "tle_line1": "1 40874U 15039A   25343.55444690 -.00000283  00000+0  00000+0 0  9997",
        "tle_line2": "2 40874   0.0128 307.0950 0000583 223.5421  52.0138  1.00270174 37725"
      },
      "geometry": {
        "type": "Point",
        "coordinates": [
          -27.36538712859859,
          0.005685620896181735
        ]
      }
    }
  ]
}